{"type": "FeatureCollection", "features": [ {"type": "Feature", "properties": {"norad_id": 66900, "name": "STARLINK-36074", "group": "last-30-days", "lat": -35.200095063633015, "lon": -33.13637982957957, "alt_km": 420.08755199974166, "timestamp": "2025-12-27T20:30:58.023726+00:00", "meta": {"OBJECT_NAME": "STARLINK-36074", "OBJECT_ID": "2025-283Y", "EPOCH": "2025-12-27T12:00:02.000160", "MEAN_MOTION": 15.51820593, "ECCENTRICITY": 0.0001265, "INCLINATION": 53.16, "RA_OF_ASC_NODE": 0.4945, "ARG_OF_PERICENTER": 73.588, "MEAN_ANOMALY": 57.9779, "EPHEMERIS_TYPE": 0, "CLASSIFICATION_TYPE": "U", "NORAD_CAT_ID": 66900, "ELEMENT_SET_NO": 999, "REV_AT_EPOCH": 480, "BSTAR": -0.033047, "MEAN_MOTION_DOT": -0.01785868, "MEAN_MOTION_DDOT": 0}, "tle": {"line1": "1 66900U 25283Y   25361.50002315 -.01785868  00000+0 -33047-1 0  9996", "line2": "2 66900  53.1600   0.4945 0001265  73.5880  57.9779 15.51820593  4800"}}, "geometry": {"type": "Point", "coordinates": [-33.13637982957957, -35.200095063633015]}}, {"type": "Feature", "properties": {"norad_id": 66901, "name": "STARLINK-36043", "group": "last-30-days", "lat": -33.88834857126838, "lon": -31.44822102250919, "alt_km": 419.98776037705375, "timestamp": "2025-12-27T20:30:58.023736+00:00", "meta": {"OBJECT_NAME": "STARLINK-36043", "OBJECT_ID": "2025-283Z", "EPOCH": "2025-12-27T12:00:02.000160", "MEAN_MOTION": 15.51829138, "ECCENTRICITY": 0.0001257, "INCLINATION": 53.16, "RA_OF_ASC_NODE": 0.4899, "ARG_OF_PERICENTER": 73.5666, "MEAN_ANOMALY": 59.9109, "EPHEMERIS_TYPE": 0, "CLASSIFICATION_TYPE": "U", "NORAD_CAT_ID": 66901, "ELEMENT_SET_NO": 999, "REV_AT_EPOCH": 480, "BSTAR": -0.03325, "MEAN_MOTION_DOT": -0.01796075, "MEAN_MOTION_DDOT": 0}, "tle": {"line1": "1 66901U 25283Z   25361.50002315 -.01796075  00000+0 -33250-1 0  9995", "line2": "2 66901  53.1600   0.4899 0001257  73.5666  59.9109 15.51829138  4805"}}, "geometry": {"type": "Point", "coordinates": [-31.44822102250919, -33.88834857126838]}}, {"type": "Feature", "properties": {"norad_id": 66902, "name": "STARLINK-35983", "group": "last-30-days", "lat": -32.55431860999484, "lon": -29.81135761755533, "alt_km": 419.8884976310683, "timestamp": "2025-12-27T20:30:58.023746+00:00", "meta": {"OBJECT_NAME": "STARLINK-35983", "OBJECT_ID": "2025-283AA", "EPOCH": "2025-12-27T12:00:02.000160", "MEAN_MOTION": 15.51828157, "ECCENTRICITY": 0.0001287, "INCLINATION": 53.1599, "RA_OF_ASC_NODE": 0.486, "ARG_OF_PERICENTER": 71.4242, "MEAN_ANOMALY": 63.9752, "EPHEMERIS_TYPE": 0, "CLASSIFICATION_TYPE": "U", "NORAD_CAT_ID": 66902, "ELEMENT_SET_NO": 999, "REV_AT_EPOCH": 480, "BSTAR": -0.033387, "MEAN_MOTION_DOT": -0.01802622, "MEAN_MOTION_DDOT": 0}, "tle": {"line1": "1 66902U 25283AA  25361.50002315 -.01802622  00000+0 -33387-1 0  9993", "line2": "2 66902  53.1599   0.4860 0001287  71.4242  63.9752 15.51828157  4800"}}, "geometry": {"type": "Point", "coordinates": [-29.81135761755533, -32.55431860999484]}}, {"type": "Feature", "properties": {"norad_id": 66903, "name": "STARLINK-36077", "group": "last-30-days", "lat": -31.200971483282814, "lon": -28.223787048900515, "alt_km": 419.7579565692349, "timestamp": "2025-12-27T20:30:58.023759+00:00", "meta": {"OBJECT_NAME": "STARLINK-36077", "OBJECT_ID": "2025-283AB", "EPOCH": "2025-12-27T12:00:02.000160", "MEAN_MOTION": 15.51829043, "ECCENTRICITY": 0.0001299, "INCLINATION": 53.1599, "RA_OF_ASC_NODE": 0.4827, "ARG_OF_PERICENTER": 68.9955, "MEAN_ANOMALY": 68.3193, "EPHEMERIS_TYPE": 0, "CLASSIFICATION_TYPE": "U", "NORAD_CAT_ID": 66903, "ELEMENT_SET_NO": 999, "REV_AT_EPOCH": 480, "BSTAR": -0.033448, "MEAN_MOTION_DOT": -0.01805581, "MEAN_MOTION_DDOT": 0}, "tle": {"line1": "1 66903U 25283AB  25361.50002315 -.01805581  00000+0 -33448-1 0  9999", "line2": "2 66903  53.1599   0.4827 0001299  68.9955  68.3193 15.51829043  4802"}}, "geometry": {"type": "Point", "coordinates": [-28.223787048900515, -31.200971483282814]}}, {"type": "Feature", "properties": {"norad_id": 66904, "name": "STARLINK-36059", "group": "last-30-days", "lat": -29.828085566210156, "lon": -26.68263569019812, "alt_km": 419.58001901261923, "timestamp": "2025-12-27T20:30:58.023769+00:00", "meta": {"OBJECT_NAME": "STARLINK-36059", "OBJECT_ID": "2025-283AC", "EPOCH": "2025-12-27T12:00:02.000160", "MEAN_MOTION": 15.51825264, "ECCENTRICITY": 0.0001325, "INCLINATION": 53.1599, "RA_OF_ASC_NODE": 0.4776, "ARG_OF_PERICENTER": 65.1818, "MEAN_ANOMALY": 74.0467, "EPHEMERIS_TYPE": 0, "CLASSIFICATION_TYPE": "U", "NORAD_CAT_ID": 66904, "ELEMENT_SET_NO": 999, "REV_AT_EPOCH": 480, "BSTAR": -0.033196, "MEAN_MOTION_DOT": -0.01793293, "MEAN_MOTION_DDOT": 0}, "tle": {"line1": "1 66904U 25283AC  25361.50002315 -.01793293  00000+0 -33196-1 0  9996", "line2": "2 66904  53.1599   0.4776 0001325  65.1818  74.0467 15.51825264  4802"}}, "geometry": {"type": "Point", "coordinates": [-26.68263569019812, -29.828085566210156]}}, {"type": "Feature", "properties": {"norad_id": 66905, "name": "STARLINK-36075", "group": "last-30-days", "lat": -28.434856862131916, "lon": -25.178756432854417, "alt_km": 419.4852550197629, "timestamp": "2025-12-27T20:30:58.023779+00:00", "meta": {"OBJECT_NAME": "STARLINK-36075", "OBJECT_ID": "2025-283AD", "EPOCH": "2025-12-27T12:00:02.000160", "MEAN_MOTION": 15.51833002, "ECCENTRICITY": 0.0001304, "INCLINATION": 53.1599, "RA_OF_ASC_NODE": 0.4744, "ARG_OF_PERICENTER": 65.7013, "MEAN_ANOMALY": 75.4459, "EPHEMERIS_TYPE": 0, "CLASSIFICATION_TYPE": "U", "NORAD_CAT_ID": 66905, "ELEMENT_SET_NO": 999, "REV_AT_EPOCH": 480, "BSTAR": -0.033563, "MEAN_MOTION_DOT": -0.01811322, "MEAN_MOTION_DDOT": 0}, "tle": {"line1": "1 66905U 25283AD  25361.50002315 -.01811322  00000+0 -33563-1 0  9999", "line2": "2 66905  53.1599   0.4744 0001304  65.7013  75.4459 15.51833002  4803"}}, "geometry": {"type": "Point", "coordinates": [-25.178756432854417, -28.434856862131916]}}, {"type": "Feature", "properties": {"norad_id": 66906, "name": "1998-067XS", "group": "last-30-days", "lat": -51.6086445989255, "lon": -23.466595298641987, "alt_km": 415.4956820503294, "timestamp": "2025-12-27T20:30:58.023789+00:00", "meta": {"OBJECT_NAME": "1998-067XS", "OBJECT_ID": "1998-067XS", "EPOCH": "2025-12-27T11:37:45.622848", "MEAN_MOTION": 15.51372826, "ECCENTRICITY": 0.0002659, "INCLINATION": 51.6319, "RA_OF_ASC_NODE": 69.2523, "ARG_OF_PERICENTER": 278.8538, "MEAN_ANOMALY": 81.215, "EPHEMERIS_TYPE": 0, "CLASSIFICATION_TYPE": "U", "NORAD_CAT_ID": 66906, "ELEMENT_SET_NO": 999, "REV_AT_EPOCH": 390, "BSTAR": 0.00048079, "MEAN_MOTION_DOT": 0.00028453, "MEAN_MOTION_DDOT": 0}, "tle": {"line1": "1 66906U 98067XS  25361.48455582  .00028453  00000+0  48079-3 0  9997", "line2": "2 66906  51.6319  69.2523 0002659 278.8538  81.2150 15.51372826  3903"}}, "geometry": {"type": "Point", "coordinates": [-23.466595298641987, -51.6086445989255]}}, {"type": "Feature", "properties": {"norad_id": 66907, "name": "1998-067XT", "group": "last-30-days", "lat": 0.9695054606689207, "lon": 67.98981630516388, "alt_km": 405.6648530085931, "timestamp": "2025-12-27T20:30:58.023799+00:00", "meta": {"OBJECT_NAME": "1998-067XT", "OBJECT_ID": "1998-067XT", "EPOCH": "2025-12-27T09:42:09.227808", "MEAN_MOTION": 15.53307188, "ECCENTRICITY": 0.0003783, "INCLINATION": 51.632, "RA_OF_ASC_NODE": 69.4664, "ARG_OF_PERICENTER": 315.9002, "MEAN_ANOMALY": 44.1686, "EPHEMERIS_TYPE": 0, "CLASSIFICATION_TYPE": "U", "NORAD_CAT_ID": 66907, "ELEMENT_SET_NO": 999, "REV_AT_EPOCH": 389, "BSTAR": 0.0010591, "MEAN_MOTION_DOT": 0.0006817, "MEAN_MOTION_DDOT": 0}, "tle": {"line1": "1 66907U 98067XT  25361.40427347  .00068170  00000+0  10591-2 0  9995", "line2": "2 66907  51.6320  69.4664 0003783 315.9002  44.1686 15.53307188  3893"}}, "geometry": {"type": "Point", "coordinates": [67.98981630516388, 0.9695054606689207]}}, {"type": "Feature", "properties": {"norad_id": 66908, "name": "1998-067XU", "group": "last-30-days", "lat": 6.129694082643917, "lon": 72.08794224801498, "alt_km": 405.10601164946456, "timestamp": "2025-12-27T20:30:58.023811+00:00", "meta": {"OBJECT_NAME": "1998-067XU", "OBJECT_ID": "1998-067XU", "EPOCH": "2025-12-27T11:13:06.748608", "MEAN_MOTION": 15.53347401, "ECCENTRICITY": 0.0004039, "INCLINATION": 51.6324, "RA_OF_ASC_NODE": 69.1374, "ARG_OF_PERICENTER": 312.9995, "MEAN_ANOMALY": 47.0657, "EPHEMERIS_TYPE": 0, "CLASSIFICATION_TYPE": "U", "NORAD_CAT_ID": 66908, "ELEMENT_SET_NO": 999, "REV_AT_EPOCH": 390, "BSTAR": 0.00092502, "MEAN_MOTION_DOT": 0.00059503, "MEAN_MOTION_DDOT": 0}, "tle": {"line1": "1 66908U 98067XU  25361.46743922  .00059503  00000+0  92502-3 0  9995", "line2": "2 66908  51.6324  69.1374 0004039 312.9995  47.0657 15.53347401  3900"}}, "geometry": {"type": "Point", "coordinates": [72.08794224801498, 6.129694082643917]}}, {"type": "Feature", "properties": {"norad_id": 66909, "name": "SILVERSAT", "group": "last-30-days", "lat": 15.313046045063073, "lon": 79.71123561623453, "alt_km": 403.00055900145617, "timestamp": "2025-12-27T20:30:58.023822+00:00", "meta": {"OBJECT_NAME": "SILVERSAT", "OBJECT_ID": "1998-067XV", "EPOCH": "2025-12-27T11:10:11.042112", "MEAN_MOTION": 15.53674289, "ECCENTRICITY": 0.0003945, "INCLINATION": 51.6313, "RA_OF_ASC_NODE": 69.1235, "ARG_OF_PERICENTER": 319.4612, "MEAN_ANOMALY": 40.6084, "EPHEMERIS_TYPE": 0, "CLASSIFICATION_TYPE": "U", "NORAD_CAT_ID": 66909, "ELEMENT_SET_NO": 999, "REV_AT_EPOCH": 390, "BSTAR": 0.0011635, "MEAN_MOTION_DOT": 0.00076025, "MEAN_MOTION_DDOT": 0}, "tle": {"line1": "1 66909U 98067XV  25361.46540558  .00076025  00000+0  11635-2 0  9991", "line2": "2 66909  51.6313  69.1235 0003945 319.4612  40.6084 15.53674289  3908"}}, "geometry": {"type": "Point", "coordinates": [79.71123561623453, 15.313046045063073]}}]}